start=new Date('2021-10-01T00:00:00.000Z').valueOf();
sats=[{"EPHEMERIS_TYPE":"0","MEAN_ELEMENT_THEORY":"SGP4","MEAN_ANOMALY":"260.9875","REF_FRAME":"TEME","REV_AT_EPOCH":"9606","LAUNCH_DATE":"2020-01-07","FILE":"3136969","PERIAPSIS":"546.513","OBJECT_ID":"2020-001BC","MEAN_MOTION":"15.06403090","NORAD_CAT_ID":"44964","SITE":"AFETR","TLE_LINE2":"2 44964  53.0562  24.2872 0000998  99.1227 260.9875 15.06403090 96067","OBJECT_NAME":"STARLINK-1086","MEAN_MOTION_DDOT":"0.0000000000000","OBJECT_TYPE":"PAYLOAD","ELEMENT_SET_NO":"999","INCLINATION":"53.0562","MEAN_MOTION_DOT":"0.00000767","TLE_LINE1":"1 44964U 20001BC  21273.53301944  .00000767  00000-0  70382-4 0  9998","CENTER_NAME":"EARTH","DECAY_DATE":null,"COUNTRY_CODE":"US","ECCENTRICITY":"0.00009980","BSTAR":"0.00007038200000","CLASSIFICATION_TYPE":"U","GP_ID":"185859190","ARG_OF_PERICENTER":"99.1227","SEMIMAJOR_AXIS":"6925.339","RCS_SIZE":"LARGE","PERIOD":"95.592","APOAPSIS":"547.895","EPOCH":"2021-09-30T12:47:32.879616","RA_OF_ASC_NODE":"24.2872","TIME_SYSTEM":"UTC"},{"GP_ID":"185859940","CLASSIFICATION_TYPE":"U","TIME_SYSTEM":"UTC","RA_OF_ASC_NODE":"24.1766","APOAPSIS":"548.036","EPOCH":"2021-09-30T13:19:23.463552","PERIOD":"95.592","RCS_SIZE":"LARGE","ARG_OF_PERICENTER":"109.3128","SEMIMAJOR_AXIS":"6925.366","LAUNCH_DATE":"2020-01-07","FILE":"3136969","REV_AT_EPOCH":"9606","MEAN_ANOMALY":"250.7987","REF_FRAME":"TEME","MEAN_ELEMENT_THEORY":"SGP4","EPHEMERIS_TYPE":"0","BSTAR":"0.00009403700000","ECCENTRICITY":"0.00011630","COUNTRY_CODE":"US","TLE_LINE1":"1 44966U 20001BE  21273.55513268  .00001119  00000-0  94037-4 0  9991","CENTER_NAME":"EARTH","DECAY_DATE":null,"INCLINATION":"53.0550","MEAN_MOTION_DOT":"0.00001119","MEAN_MOTION_DDOT":"0.0000000000000","OBJECT_TYPE":"PAYLOAD","ELEMENT_SET_NO":"999","TLE_LINE2":"2 44966  53.0550  24.1766 0001163 109.3128 250.7987 15.06394465 96062","SITE":"AFETR","OBJECT_NAME":"STARLINK-1088","MEAN_MOTION":"15.06394465","NORAD_CAT_ID":"44966","OBJECT_ID":"2020-001BE","PERIAPSIS":"546.425"},{"ARG_OF_PERICENTER":"93.4844","SEMIMAJOR_AXIS":"6925.371","RCS_SIZE":"LARGE","PERIOD":"95.593","EPOCH":"2021-09-30T17:02:18.870432","APOAPSIS":"548.036","RA_OF_ASC_NODE":"23.4856","TIME_SYSTEM":"UTC","GP_ID":"185866459","CLASSIFICATION_TYPE":"U","PERIAPSIS":"546.436","OBJECT_ID":"2020-001BF","MEAN_MOTION":"15.06392583","NORAD_CAT_ID":"44967","TLE_LINE2":"2 44967  53.0564  23.4856 0001155  93.4844 266.6277 15.06392583 96099","SITE":"AFETR","OBJECT_NAME":"STARLINK-1089","MEAN_MOTION_DDOT":"0.0000000000000","OBJECT_TYPE":"PAYLOAD","ELEMENT_SET_NO":"999","MEAN_MOTION_DOT":"0.00000274","INCLINATION":"53.0564","DECAY_DATE":null,"TLE_LINE1":"1 44967U 20001BF  21273.70994063  .00000274  00000-0  37319-4 0  9996","CENTER_NAME":"EARTH","COUNTRY_CODE":"US","ECCENTRICITY":"0.00011550","BSTAR":"0.00003731900000","EPHEMERIS_TYPE":"0","MEAN_ELEMENT_THEORY":"SGP4","MEAN_ANOMALY":"266.6277","REF_FRAME":"TEME","REV_AT_EPOCH":"9609","LAUNCH_DATE":"2020-01-07","FILE":"3137104"},{"RCS_SIZE":"LARGE","SEMIMAJOR_AXIS":"6925.342","ARG_OF_PERICENTER":"105.4978","EPOCH":"2021-09-30T16:57:01.024704","APOAPSIS":"547.946","PERIOD":"95.592","RA_OF_ASC_NODE":"23.4975","TIME_SYSTEM":"UTC","CLASSIFICATION_TYPE":"U","GP_ID":"185865956","OBJECT_ID":"2020-001BG","MEAN_MOTION":"15.06402234","NORAD_CAT_ID":"44968","PERIAPSIS":"546.468","MEAN_MOTION_DDOT":"0.0000000000000","OBJECT_TYPE":"PAYLOAD","ELEMENT_SET_NO":"999","SITE":"AFETR","TLE_LINE2":"2 44968  53.0561  23.4975 0001067 105.4978 254.6129 15.06402234 96091","OBJECT_NAME":"STARLINK-1090","DECAY_DATE":null,"TLE_LINE1":"1 44968U 20001BG  21273.70626186  .00002082  00000-0  15860-3 0  9990","CENTER_NAME":"EARTH","MEAN_MOTION_DOT":"0.00002082","INCLINATION":"53.0561","BSTAR":"0.00015860000000","ECCENTRICITY":"0.00010670","COUNTRY_CODE":"US","MEAN_ELEMENT_THEORY":"SGP4","EPHEMERIS_TYPE":"0","MEAN_ANOMALY":"254.6129","REF_FRAME":"TEME","LAUNCH_DATE":"2020-01-07","FILE":"3137104","REV_AT_EPOCH":"9609"},{"OBJECT_NAME":"STARLINK-1092","SITE":"AFETR","TLE_LINE2":"2 44969  53.0559  23.5317 0001184 107.7969 252.3149 15.06404123 96080","ELEMENT_SET_NO":"999","OBJECT_TYPE":"PAYLOAD","MEAN_MOTION_DDOT":"0.0000000000000","PERIAPSIS":"546.381","MEAN_MOTION":"15.06404123","OBJECT_ID":"2020-001BH","NORAD_CAT_ID":"44969","COUNTRY_CODE":"US","ECCENTRICITY":"0.00011840","BSTAR":"0.00008821700000","MEAN_MOTION_DOT":"0.00001033","INCLINATION":"53.0559","DECAY_DATE":null,"TLE_LINE1":"1 44969U 20001BH  21273.69887309  .00001033  00000-0  88217-4 0  9997","CENTER_NAME":"EARTH","REF_FRAME":"TEME","MEAN_ANOMALY":"252.3149","EPHEMERIS_TYPE":"0","MEAN_ELEMENT_THEORY":"SGP4","REV_AT_EPOCH":"9608","FILE":"3137105","LAUNCH_DATE":"2020-01-07","PERIOD":"95.592","EPOCH":"2021-09-30T16:46:22.634976","APOAPSIS":"548.021","SEMIMAJOR_AXIS":"6925.336","ARG_OF_PERICENTER":"107.7969","RCS_SIZE":"LARGE","TIME_SYSTEM":"UTC","RA_OF_ASC_NODE":"23.5317","CLASSIFICATION_TYPE":"U","GP_ID":"185866477"},{"TLE_LINE1":"1 44970U 20001BJ  21273.67676326 -.00001124  00000-0 -56580-4 0  9993","CENTER_NAME":"EARTH","DECAY_DATE":null,"MEAN_MOTION_DOT":"-0.00001124","INCLINATION":"53.0568","BSTAR":"-0.00005658000000","COUNTRY_CODE":"US","ECCENTRICITY":"0.00013270","OBJECT_ID":"2020-001BJ","MEAN_MOTION":"15.06392632","NORAD_CAT_ID":"44970","PERIAPSIS":"546.317","MEAN_MOTION_DDOT":"0.0000000000000","OBJECT_TYPE":"PAYLOAD","ELEMENT_SET_NO":"999","SITE":"AFETR","TLE_LINE2":"2 44970  53.0568  23.6356 0001327 101.8963 258.2175 15.06392632 96078","OBJECT_NAME":"STARLINK-1093","LAUNCH_DATE":"2020-01-07","FILE":"3137106","REV_AT_EPOCH":"9607","MEAN_ELEMENT_THEORY":"SGP4","EPHEMERIS_TYPE":"0","MEAN_ANOMALY":"258.2175","REF_FRAME":"TEME","RA_OF_ASC_NODE":"23.6356","TIME_SYSTEM":"UTC","RCS_SIZE":"LARGE","SEMIMAJOR_AXIS":"6925.371","ARG_OF_PERICENTER":"101.8963","APOAPSIS":"548.155","EPOCH":"2021-09-30T16:14:32.345664","PERIOD":"95.593","CLASSIFICATION_TYPE":"U","GP_ID":"185865991"},{"LAUNCH_DATE":"2020-01-07","FILE":"3136969","REV_AT_EPOCH":"9606","MEAN_ELEMENT_THEORY":"SGP4","EPHEMERIS_TYPE":"0","MEAN_ANOMALY":"248.7088","REF_FRAME":"TEME","DECAY_DATE":null,"TLE_LINE1":"1 44972U 20001BL  21273.51457143  .00001413  00000-0  11371-3 0  9999","CENTER_NAME":"EARTH","MEAN_MOTION_DOT":"0.00001413","INCLINATION":"53.0551","BSTAR":"0.00011371000000","ECCENTRICITY":"0.00014390","COUNTRY_CODE":"US","OBJECT_ID":"2020-001BL","MEAN_MOTION":"15.06405535","NORAD_CAT_ID":"44972","PERIAPSIS":"546.200","MEAN_MOTION_DDOT":"0.0000000000000","OBJECT_TYPE":"PAYLOAD","ELEMENT_SET_NO":"999","SITE":"AFETR","TLE_LINE2":"2 44972  53.0551  24.3564 0001439 111.4054 248.7088 15.06405535 96066","OBJECT_NAME":"STARLINK-1107","GP_ID":"185858689","CLASSIFICATION_TYPE":"U","RA_OF_ASC_NODE":"24.3564","TIME_SYSTEM":"UTC","RCS_SIZE":"LARGE","ARG_OF_PERICENTER":"111.4054","SEMIMAJOR_AXIS":"6925.332","EPOCH":"2021-09-30T12:20:58.971552","APOAPSIS":"548.193","PERIOD":"95.592"},{"RA_OF_ASC_NODE":"24.4590","TIME_SYSTEM":"UTC","SEMIMAJOR_AXIS":"6925.341","ARG_OF_PERICENTER":"101.7100","RCS_SIZE":"LARGE","PERIOD":"95.592","APOAPSIS":"548.148","EPOCH":"2021-09-30T11:49:09.230880","GP_ID":"185858939","CLASSIFICATION_TYPE":"U","INCLINATION":"53.0559","MEAN_MOTION_DOT":"0.00004005","TLE_LINE1":"1 44973U 20001BM  21273.49246795  .00004005  00000-0  28757-3 0  9992","DECAY_DATE":null,"CENTER_NAME":"EARTH","COUNTRY_CODE":"US","ECCENTRICITY":"0.00013610","BSTAR":"0.00028757000000","PERIAPSIS":"546.263","NORAD_CAT_ID":"44973","OBJECT_ID":"2020-001BM","MEAN_MOTION":"15.06402570","OBJECT_NAME":"STARLINK-1115","TLE_LINE2":"2 44973  53.0559  24.4590 0001361 101.7100 258.4042 15.06402570 96056","SITE":"AFETR","ELEMENT_SET_NO":"999","OBJECT_TYPE":"PAYLOAD","MEAN_MOTION_DDOT":"0.0000000000000","REV_AT_EPOCH":"9605","FILE":"3136969","LAUNCH_DATE":"2020-01-07","EPHEMERIS_TYPE":"0","MEAN_ELEMENT_THEORY":"SGP4","REF_FRAME":"TEME","MEAN_ANOMALY":"258.4042"},{"MEAN_MOTION_DOT":"0.00000327","INCLINATION":"53.0561","TLE_LINE1":"1 45044U 20006A   21273.46667328  .00000327  00000-0  40868-4 0  9994","CENTER_NAME":"EARTH","DECAY_DATE":null,"ECCENTRICITY":"0.00013300","COUNTRY_CODE":"US","BSTAR":"0.00004086800000","PERIAPSIS":"546.296","MEAN_MOTION":"15.06398748","OBJECT_ID":"2020-006A","NORAD_CAT_ID":"45044","TLE_LINE2":"2 45044  53.0561 344.5769 0001330  95.4954 264.6187 15.06398748 92387","SITE":"AFETR","OBJECT_NAME":"STARLINK-1132","MEAN_MOTION_DDOT":"0.0000000000000","ELEMENT_SET_NO":"999","OBJECT_TYPE":"PAYLOAD","REV_AT_EPOCH":"9238","LAUNCH_DATE":"2020-01-29","FILE":"3136969","EPHEMERIS_TYPE":"0","MEAN_ELEMENT_THEORY":"SGP4","MEAN_ANOMALY":"264.6187","REF_FRAME":"TEME","RA_OF_ASC_NODE":"344.5769","TIME_SYSTEM":"UTC","SEMIMAJOR_AXIS":"6925.352","ARG_OF_PERICENTER":"95.4954","RCS_SIZE":"LARGE","PERIOD":"95.592","APOAPSIS":"548.138","EPOCH":"2021-09-30T11:12:00.571392","CLASSIFICATION_TYPE":"U","GP_ID":"185858446"},{"REF_FRAME":"TEME","MEAN_ANOMALY":"265.0902","EPHEMERIS_TYPE":"0","MEAN_ELEMENT_THEORY":"SGP4","REV_AT_EPOCH":"9211","FILE":"3136969","LAUNCH_DATE":"2020-01-29","OBJECT_NAME":"STARLINK-1120","SITE":"AFETR","TLE_LINE2":"2 45045  53.0555   4.3360 0001086  95.0211 265.0902 15.06426387 92111","ELEMENT_SET_NO":"999","OBJECT_TYPE":"PAYLOAD","MEAN_MOTION_DDOT":"0.0000000000000","PERIAPSIS":"546.381","MEAN_MOTION":"15.06426387","OBJECT_ID":"2020-006B","NORAD_CAT_ID":"45045","COUNTRY_CODE":"US","ECCENTRICITY":"0.00010860","BSTAR":"-0.00029468000000","INCLINATION":"53.0555","MEAN_MOTION_DOT":"-0.00004671","TLE_LINE1":"1 45045U 20006B   21273.52010532 -.00004671  00000-0 -29468-3 0  9991","DECAY_DATE":null,"CENTER_NAME":"EARTH","GP_ID":"185859697","CLASSIFICATION_TYPE":"U","PERIOD":"95.590","APOAPSIS":"547.885","EPOCH":"2021-09-30T12:28:57.099648","ARG_OF_PERICENTER":"95.0211","SEMIMAJOR_AXIS":"6925.268","RCS_SIZE":"LARGE","TIME_SYSTEM":"UTC","RA_OF_ASC_NODE":"4.3360"}];
